{
  "type": "FeatureCollection",
  "features": [
    {
      "type": "Feature",
      "id": "nevsky-kazansky-griboyedov",
      "properties": {
        "id": "nevsky-kazansky-griboyedov",
        "name": "Невский — Казанский — канал Грибоедова",
        "areaId": "dense-center",
        "description": "Плотная центральная сеть и набережная",
        "intentionalUnmatched": false
      },
      "geometry": {
        "type": "LineString",
        "coordinates": [
          [
            30.3195153,
            59.9363568
          ],
          [
            30.319997112120824,
            59.93631827749953
          ],
          [
            30.32005159965384,
            59.93627080838161
          ],
          [
            30.320112371418894,
            59.93630380768847
          ],
          [
            30.321402356169585,
            59.936144409568364
          ],
          [
            30.321941099786713,
            59.93603887545435
          ],
          [
            30.321773901739192,
            59.93585982727031
          ],
          [
            30.32178959879264,
            59.93579090599612
          ],
          [
            30.32203603923213,
            59.935720091013465
          ],
          [
            30.322670932023865,
            59.935682360709855
          ],
          [
            30.32383102175016,
            59.93554948514935
          ],
          [
            30.3238349226378,
            59.935508132881836
          ],
          [
            30.32401410496041,
            59.935528075548255
          ],
          [
            30.324202123718784,
            59.93550617337019
          ],
          [
            30.324197050593305,
            59.935366301744125
          ],
          [
            30.324115252747678,
            59.93536653362412
          ],
          [
            30.32400327904086,
            59.93506826303892
          ],
          [
            30.323920821119696,
            59.935070607539735
          ],
          [
            30.323815722499372,
            59.93482881248334
          ],
          [
            30.32388072691329,
            59.93477109131237
          ],
          [
            30.323699510943907,
            59.93462140996635
          ],
          [
            30.323514889266065,
            59.93418309550275
          ],
          [
            30.323175912334673,
            59.93391411844709
          ],
          [
            30.32389488658514,
            59.933813558837784
          ],
          [
            30.32472024766575,
            59.93366483859956
          ],
          [
            30.32498148144911,
            59.93357770350746
          ],
          [
            30.3252882,
            59.9335454
          ],
          [
            30.324962782665686,
            59.93358454543476
          ],
          [
            30.325098627268186,
            59.93369149366645
          ],
          [
            30.32507544140818,
            59.93378647476454
          ],
          [
            30.325307083896487,
            59.93391725803179
          ],
          [
            30.325543543249168,
            59.934283420867764
          ],
          [
            30.325498345512774,
            59.934354734964174
          ],
          [
            30.325697203938216,
            59.93437713415625
          ],
          [
            30.325481985499014,
            59.933637444698775
          ],
          [
            30.325521016599183,
            59.933616643140354
          ],
          [
            30.325363760217343,
            59.933420344270544
          ],
          [
            30.325306406231537,
            59.93340245619551
          ],
          [
            30.32526562175529,
            59.9334247800515
          ],
          [
            30.325032265882562,
            59.933063627321744
          ],
          [
            30.32508510135836,
            59.93302937228166
          ],
          [
            30.324984510470497,
            59.93298511090808
          ],
          [
            30.325062246901318,
            59.932953601618124
          ],
          [
            30.324893505901372,
            59.93260019654569
          ],
          [
            30.324696638968575,
            59.932357995831474
          ],
          [
            30.324732912327672,
            59.932289454735056
          ],
          [
            30.32425760384701,
            59.93214660055874
          ],
          [
            30.32362563252876,
            59.93200501024877
          ],
          [
            30.323253864019282,
            59.93184817795096
          ],
          [
            30.323268,
            59.9318283
          ]
        ]
      }
    },
    {
      "type": "Feature",
      "id": "admiralteyskaya-isaac-moyka",
      "properties": {
        "id": "admiralteyskaya-isaac-moyka",
        "name": "Адмиралтейская — Исаакиевская площадь — Мойка",
        "areaId": "dense-center",
        "description": "Площади, переходы и набережная в центре",
        "intentionalUnmatched": false
      },
      "geometry": {
        "type": "LineString",
        "coordinates": [
          [
            30.3159289,
            59.9357122
          ],
          [
            30.315875231547523,
            59.935692578379935
          ],
          [
            30.315236264973638,
            59.936144768854525
          ],
          [
            30.315111453845184,
            59.936300971280524
          ],
          [
            30.315019084321495,
            59.93623953934198
          ],
          [
            30.314937844045378,
            59.93625919958265
          ],
          [
            30.314902571528382,
            59.93619985373051
          ],
          [
            30.314777139002953,
            59.93620427051389
          ],
          [
            30.314041610980865,
            59.935983879011545
          ],
          [
            30.31341457051976,
            59.935705777874716
          ],
          [
            30.312193549215486,
            59.93526427025954
          ],
          [
            30.31204206844353,
            59.93525712521092
          ],
          [
            30.312038775532454,
            59.93520201043374
          ],
          [
            30.311887944573343,
            59.935186493447574
          ],
          [
            30.311894183145704,
            59.935140182602765
          ],
          [
            30.310923063551495,
            59.93483693424984
          ],
          [
            30.310507350230697,
            59.93463737078613
          ],
          [
            30.309779258262278,
            59.9343734737651
          ],
          [
            30.309385815358514,
            59.93427945284013
          ],
          [
            30.309162064816373,
            59.93415070410419
          ],
          [
            30.308625244722027,
            59.933959237908304
          ],
          [
            30.30841582603793,
            59.93372948830048
          ],
          [
            30.30821520576078,
            59.93363900301784
          ],
          [
            30.308075181742996,
            59.93369399348887
          ],
          [
            30.30750728806765,
            59.93348756351718
          ],
          [
            30.30667994796867,
            59.93325478050268
          ],
          [
            30.306469397031773,
            59.93323875941803
          ],
          [
            30.306494115378804,
            59.93319624170029
          ],
          [
            30.306408672952177,
            59.9331726468069
          ],
          [
            30.30629909946268,
            59.93330462035535
          ],
          [
            30.306141302362686,
            59.933340378460194
          ],
          [
            30.306082,
            59.9334095
          ],
          [
            30.306141302362686,
            59.933340378460194
          ],
          [
            30.30629909946268,
            59.93330462035535
          ],
          [
            30.306465651884107,
            59.933199729971854
          ],
          [
            30.3067801673451,
            59.932926714927724
          ],
          [
            30.307068320931265,
            59.933000049125546
          ],
          [
            30.307607375549548,
            59.932650071916406
          ],
          [
            30.307827773908606,
            59.932582967401785
          ],
          [
            30.30805658709369,
            59.93270088412534
          ],
          [
            30.307998037412922,
            59.93276045120191
          ],
          [
            30.308140168296987,
            59.932759050214386
          ],
          [
            30.308109614874816,
            59.932695806601856
          ],
          [
            30.308329314186302,
            59.93273558454406
          ],
          [
            30.308593906812458,
            59.93273626247873
          ],
          [
            30.30859553403691,
            59.93267914601689
          ],
          [
            30.308731792002675,
            59.93269002432085
          ],
          [
            30.308796852888232,
            59.932652706363186
          ],
          [
            30.308834444074755,
            59.93269895351601
          ],
          [
            30.30916974657888,
            59.93277783691077
          ],
          [
            30.30919445090438,
            59.93268601167293
          ],
          [
            30.309347916654158,
            59.932612352035875
          ],
          [
            30.30967756156435,
            59.93211447467288
          ],
          [
            30.309755036247235,
            59.93212398355651
          ],
          [
            30.30978439173805,
            59.9320874387056
          ],
          [
            30.309644335453807,
            59.93196196069797
          ],
          [
            30.30955608027247,
            59.93195787281124
          ],
          [
            30.309628750308686,
            59.93192727437053
          ],
          [
            30.309685960729368,
            59.931760173245145
          ],
          [
            30.309783096287482,
            59.93176169292703
          ],
          [
            30.3098486,
            59.9317292
          ]
        ]
      }
    },
    {
      "type": "Feature",
      "id": "konyushennaya-capella-moyka",
      "properties": {
        "id": "konyushennaya-capella-moyka",
        "name": "Большая Конюшенная — дворы Капеллы — Мойка",
        "areaId": "dense-center",
        "description": "Намеренно неоднозначный участок во дворах",
        "intentionalUnmatched": true
      },
      "geometry": {
        "type": "LineString",
        "coordinates": [
          [
            30.32332,
            59.9385477
          ],
          [
            30.323362991024172,
            59.938543379144136
          ],
          [
            30.323899421391673,
            59.93964777704443
          ],
          [
            30.32459366567164,
            59.94090995597199
          ],
          [
            30.324392959668813,
            59.94091232839125
          ],
          [
            30.324270590939502,
            59.940949747144145
          ],
          [
            30.324032067528986,
            59.9402811065597
          ],
          [
            30.323967530598186,
            59.94031068796052
          ],
          [
            30.323647393177627,
            59.94031019863635
          ],
          [
            30.323464845568274,
            59.940343360030774
          ],
          [
            30.323463751996194,
            59.94041397584265
          ],
          [
            30.32358136429992,
            59.940437294716865
          ],
          [
            30.32360136429992,
            59.94057729471687
          ],
          [
            30.32320136429992,
            59.940417294716866
          ],
          [
            30.3228979103346,
            59.940474697436166
          ],
          [
            30.322661571134066,
            59.94056200608065
          ],
          [
            30.322588080332167,
            59.94053338419067
          ],
          [
            30.32232079195274,
            59.94058400091712
          ],
          [
            30.322275644647785,
            59.94063264115666
          ],
          [
            30.321594940552984,
            59.94050008806781
          ],
          [
            30.32153698366514,
            59.94056141252116
          ],
          [
            30.32078072419846,
            59.94088938501336
          ],
          [
            30.320534387190264,
            59.94104779902235
          ],
          [
            30.320420780406128,
            59.94091261609861
          ],
          [
            30.3200093,
            59.9406651
          ]
        ]
      }
    },
    {
      "type": "Feature",
      "id": "akademicheskaya-grazhdansky",
      "properties": {
        "id": "akademicheskaya-grazhdansky",
        "name": "Академическая — Гражданский проспект",
        "areaId": "kalininsky-corridor",
        "description": "Жилые кварталы между двумя станциями метро",
        "intentionalUnmatched": false
      },
      "geometry": {
        "type": "LineString",
        "coordinates": [
          [
            30.3976132,
            60.012871
          ],
          [
            30.397371350023654,
            60.012910440568284
          ],
          [
            30.397386452115928,
            60.01294420762856
          ],
          [
            30.39725962568436,
            60.01305775781963
          ],
          [
            30.397393075222457,
            60.0131081242134
          ],
          [
            30.397387315017102,
            60.01318725770991
          ],
          [
            30.397486182723252,
            60.013196040130055
          ],
          [
            30.39747728715283,
            60.01327202557136
          ],
          [
            30.397627429416648,
            60.013336285251036
          ],
          [
            30.397743784558013,
            60.0133399845511
          ],
          [
            30.398114291217166,
            60.01364583588115
          ],
          [
            30.39833930993106,
            60.01395786252429
          ],
          [
            30.39832568869704,
            60.01444127105291
          ],
          [
            30.39867235362095,
            60.01487140997673
          ],
          [
            30.399396942351384,
            60.01550148534759
          ],
          [
            30.399460071380393,
            60.01565152837626
          ],
          [
            30.399821469982236,
            60.016008727371684
          ],
          [
            30.400368131329543,
            60.01646137342792
          ],
          [
            30.400442468224167,
            60.01662262628241
          ],
          [
            30.400632632926083,
            60.01672287472996
          ],
          [
            30.40077896923963,
            60.01695532763763
          ],
          [
            30.400872231299992,
            60.01695977287217
          ],
          [
            30.401038068292536,
            60.01721142697207
          ],
          [
            30.401585238667717,
            60.017674780081144
          ],
          [
            30.40251204508611,
            60.018707874768715
          ],
          [
            30.402520221459387,
            60.01880028043915
          ],
          [
            30.404182349301536,
            60.02032729604232
          ],
          [
            30.40466426412871,
            60.02084208801093
          ],
          [
            30.40529294137371,
            60.02101954577532
          ],
          [
            30.40534026831015,
            60.021085921631695
          ],
          [
            30.405574298838523,
            60.02116901310207
          ],
          [
            30.40588546323638,
            60.02140090386279
          ],
          [
            30.405856650072618,
            60.021645229179775
          ],
          [
            30.405716636009792,
            60.02190246543466
          ],
          [
            30.405591301626853,
            60.02200430120996
          ],
          [
            30.405540806522737,
            60.022156050382804
          ],
          [
            30.405669861805983,
            60.022195834873465
          ],
          [
            30.40567903738825,
            60.02228596446488
          ],
          [
            30.405817558751277,
            60.022329431983614
          ],
          [
            30.405806450396522,
            60.02240112111137
          ],
          [
            30.405863786245323,
            60.02243484467302
          ],
          [
            30.406282029052353,
            60.02253092807712
          ],
          [
            30.40636073322168,
            60.022634897648004
          ],
          [
            30.407010139676107,
            60.02271551788292
          ],
          [
            30.407165652663416,
            60.02263247291393
          ],
          [
            30.407294656729345,
            60.02264272455888
          ],
          [
            30.407349656026202,
            60.02258307201841
          ],
          [
            30.407449957664,
            60.02260102430132
          ],
          [
            30.4075926229541,
            60.02253628097656
          ],
          [
            30.40761398985905,
            60.02264595227982
          ],
          [
            30.407655397942072,
            60.02268915723798
          ],
          [
            30.407755287888104,
            60.02270164705322
          ],
          [
            30.407942111368783,
            60.023001276419976
          ],
          [
            30.40848380396802,
            60.02352626635268
          ],
          [
            30.40884566722834,
            60.023790601135325
          ],
          [
            30.408993563808565,
            60.02403922701064
          ],
          [
            30.409316731917045,
            60.02436709706091
          ],
          [
            30.409543288325203,
            60.02449024742293
          ],
          [
            30.409785235542135,
            60.02475851443206
          ],
          [
            30.41021057384326,
            60.02500377518107
          ],
          [
            30.41036435547728,
            60.02498586814251
          ],
          [
            30.410662844449604,
            60.025151823994335
          ],
          [
            30.410669289091125,
            60.025220675721165
          ],
          [
            30.410782673841883,
            60.02527065926544
          ],
          [
            30.410775220691654,
            60.025426199578995
          ],
          [
            30.410875161323112,
            60.025436152711336
          ],
          [
            30.410854670990933,
            60.025498787352106
          ],
          [
            30.410927675386382,
            60.02556369132204
          ],
          [
            30.411053726427618,
            60.02559501024409
          ],
          [
            30.411032581291053,
            60.025656996657396
          ],
          [
            30.411094077324144,
            60.02571160374079
          ],
          [
            30.411185906571102,
            60.025713456278545
          ],
          [
            30.411229598868584,
            60.02583619066801
          ],
          [
            30.411472665274367,
            60.02591143582212
          ],
          [
            30.411680426654584,
            60.026028358715216
          ],
          [
            30.411691996486518,
            60.02612921058478
          ],
          [
            30.411889332228263,
            60.02629421690713
          ],
          [
            30.412009900828185,
            60.02632453192719
          ],
          [
            30.41224896816907,
            60.026652637447285
          ],
          [
            30.413495690038104,
            60.02789996063131
          ],
          [
            30.413933233485317,
            60.028244163116405
          ],
          [
            30.4145356644618,
            60.028926135558606
          ],
          [
            30.414754261556872,
            60.02905479001024
          ],
          [
            30.415781658119798,
            60.03016923116261
          ],
          [
            30.416284606973093,
            60.0305779345527
          ],
          [
            30.416475662566857,
            60.03085123634698
          ],
          [
            30.417302032370102,
            60.031684706962494
          ],
          [
            30.41757125778593,
            60.03186328330174
          ],
          [
            30.41754803985101,
            60.03192811440958
          ],
          [
            30.41893381817752,
            60.03329969438407
          ],
          [
            30.4191918262096,
            60.03347155018407
          ],
          [
            30.419195163348988,
            60.033564439313096
          ],
          [
            30.419265460628576,
            60.033635836630616
          ],
          [
            30.419502122783275,
            60.03377339453837
          ],
          [
            30.419607492690794,
            60.033728290101706
          ],
          [
            30.419604529970538,
            60.03381150684578
          ],
          [
            30.41974245354739,
            60.033876323457804
          ],
          [
            30.41961980449862,
            60.03387351532388
          ],
          [
            30.4195517355391,
            60.03391033666543
          ],
          [
            30.419596588757752,
            60.03396305189626
          ],
          [
            30.419510396192628,
            60.03414622244965
          ],
          [
            30.4195424,
            60.0343462
          ]
        ]
      }
    },
    {
      "type": "Feature",
      "id": "sosnovka-tikhoretsky-severny",
      "properties": {
        "id": "sosnovka-tikhoretsky-severny",
        "name": "Сосновка: Тихорецкий — парк — Северный",
        "areaId": "sosnovka-park",
        "description": "Вход от Тихорецкого, внутренняя сеть парка и выход к Северному",
        "intentionalUnmatched": false
      },
      "geometry": {
        "type": "LineString",
        "coordinates": [
          [
            30.3671408,
            60.0209557
          ],
          [
            30.367435206185263,
            60.02098766836993
          ],
          [
            30.367128783488912,
            60.02256261237516
          ],
          [
            30.367177116275187,
            60.02271339944607
          ],
          [
            30.36681321400291,
            60.02266738435137
          ],
          [
            30.366652593708316,
            60.022700315971825
          ],
          [
            30.366583873488494,
            60.022657782661696
          ],
          [
            30.366449293222015,
            60.02265218348212
          ],
          [
            30.366076402022532,
            60.02267632827411
          ],
          [
            30.36591178793964,
            60.02263213813885
          ],
          [
            30.365736809904345,
            60.022658171529926
          ],
          [
            30.365323951531735,
            60.02255666904761
          ],
          [
            30.365272955668143,
            60.022484738876976
          ],
          [
            30.364890271119812,
            60.02233294210135
          ],
          [
            30.36448738248243,
            60.02244725319762
          ],
          [
            30.3634718697553,
            60.022584748086864
          ],
          [
            30.363298795355703,
            60.02245601517003
          ],
          [
            30.36342639939839,
            60.0222070273068
          ],
          [
            30.360586480209776,
            60.02224654892045
          ],
          [
            30.360483254312555,
            60.02226457205773
          ],
          [
            30.360056829885874,
            60.02259067300552
          ],
          [
            30.357461235850863,
            60.022423233908256
          ],
          [
            30.35641578351301,
            60.02241962368765
          ],
          [
            30.355833174405568,
            60.02236089767874
          ],
          [
            30.355480475352866,
            60.02256081349243
          ],
          [
            30.35506243396842,
            60.02318086590683
          ],
          [
            30.355011375424933,
            60.02336821520705
          ],
          [
            30.354919309828706,
            60.02332610195854
          ],
          [
            30.35286608492974,
            60.02322760552619
          ],
          [
            30.35171617305045,
            60.023210894144526
          ],
          [
            30.35157741071313,
            60.0234027714885
          ],
          [
            30.350750899040346,
            60.02354984148193
          ],
          [
            30.349696896339328,
            60.023961282213946
          ],
          [
            30.34904057727549,
            60.02412967560388
          ],
          [
            30.348984078814286,
            60.02423071582584
          ],
          [
            30.34908409356388,
            60.02438348441981
          ],
          [
            30.349608562118252,
            60.024807667315024
          ],
          [
            30.349688899422524,
            60.02509047887514
          ],
          [
            30.34961070358538,
            60.02517647597433
          ],
          [
            30.349624299253772,
            60.025613529830416
          ],
          [
            30.34969178256112,
            60.02580640404758
          ],
          [
            30.34959431711585,
            60.02610359538997
          ],
          [
            30.349581085443265,
            60.02655944292075
          ],
          [
            30.348621548553016,
            60.02615045763859
          ],
          [
            30.3479382352182,
            60.02656650650842
          ],
          [
            30.347345341048417,
            60.02674797215483
          ],
          [
            30.3467927166863,
            60.02700811608258
          ],
          [
            30.3462767,
            60.0268595
          ],
          [
            30.34748871312229,
            60.02727258900034
          ],
          [
            30.348262826057013,
            60.02748872535103
          ],
          [
            30.348781526140904,
            60.02779574556079
          ],
          [
            30.34955702794454,
            60.02813760125038
          ],
          [
            30.34903959973945,
            60.02808590953973
          ],
          [
            30.348783711509544,
            60.02928452547954
          ],
          [
            30.34877318191228,
            60.030205566772864
          ],
          [
            30.348481975427077,
            60.031011920550746
          ],
          [
            30.348555724008822,
            60.031032181289994
          ],
          [
            30.348462375325344,
            60.03107402064013
          ],
          [
            30.348407919126956,
            60.03129785188869
          ],
          [
            30.34896594816653,
            60.031291923745044
          ],
          [
            30.3500501,
            60.0313689
          ]
        ]
      }
    }
  ]
}
